CCSDS_OMM_VERS = 2.0
CREATION_DATE  = 
ORIGINATOR     = 

OBJECT_NAME    = H-2A R/B
OBJECT_ID      = 2012-025E
CENTER_NAME    = EARTH
REF_FRAME      = TEME
TIME_SYSTEM    = UTC
MEAN_ELEMENT_THEORY = SGP/SGP4

EPOCH          = 2025-11-17T14:18:52.264800
MEAN_MOTION    = 14.94203110
ECCENTRICITY   = .00446698
INCLINATION    = 98.4549
RA_OF_ASC_NODE = 274.8984
ARG_OF_PERICENTER = 320.8147
MEAN_ANOMALY   = 38.9840

EPHEMERIS_TYPE = 0
CLASSIFICATION_TYPE = U
NORAD_CAT_ID   = 38341
ELEMENT_SET_NO = 999
REV_AT_EPOCH   = 73147
BSTAR          = .50305992E-3
MEAN_MOTION_DOT = .543E-4
MEAN_MOTION_DDOT = 0

CCSDS_OMM_VERS = 2.0
CREATION_DATE  = 
ORIGINATOR     = 

OBJECT_NAME    = SHIJIAN-16 (SJ-16)
OBJECT_ID      = 2013-057A
CENTER_NAME    = EARTH
REF_FRAME      = TEME
TIME_SYSTEM    = UTC
MEAN_ELEMENT_THEORY = SGP/SGP4

EPOCH          = 2025-11-17T20:35:44.832192
MEAN_MOTION    = 14.91879469
ECCENTRICITY   = .0016642
INCLINATION    = 74.9750
RA_OF_ASC_NODE = 36.7286
ARG_OF_PERICENTER = 19.6563
MEAN_ANOMALY   = 340.5262

EPHEMERIS_TYPE = 0
CLASSIFICATION_TYPE = U
NORAD_CAT_ID   = 39358
ELEMENT_SET_NO = 999
REV_AT_EPOCH   = 65482
BSTAR          = .27985E-3
MEAN_MOTION_DOT = .2808E-4
MEAN_MOTION_DDOT = 0

CCSDS_OMM_VERS = 2.0
CREATION_DATE  = 
ORIGINATOR     = 

OBJECT_NAME    = SL-4 R/B
OBJECT_ID      = 2014-021B
CENTER_NAME    = EARTH
REF_FRAME      = TEME
TIME_SYSTEM    = UTC
MEAN_ELEMENT_THEORY = SGP/SGP4

EPOCH          = 2025-11-16T23:38:19.891680
MEAN_MOTION    = 15.35774834
ECCENTRICITY   = .01036927
INCLINATION    = 51.6057
RA_OF_ASC_NODE = 165.6757
ARG_OF_PERICENTER = 53.5677
MEAN_ANOMALY   = 307.4811

EPHEMERIS_TYPE = 0
CLASSIFICATION_TYPE = U
NORAD_CAT_ID   = 39679
ELEMENT_SET_NO = 999
REV_AT_EPOCH   = 63893
BSTAR          = .483712E-3
MEAN_MOTION_DOT = .20065E-3
MEAN_MOTION_DDOT = 0

CCSDS_OMM_VERS = 2.0
CREATION_DATE  = 
ORIGINATOR     = 

OBJECT_NAME    = ALOS-2
OBJECT_ID      = 2014-029A
CENTER_NAME    = EARTH
REF_FRAME      = TEME
TIME_SYSTEM    = UTC
MEAN_ELEMENT_THEORY = SGP/SGP4

EPOCH          = 2025-11-17T20:29:58.520256
MEAN_MOTION    = 14.79474894
ECCENTRICITY   = .0001484
INCLINATION    = 97.9239
RA_OF_ASC_NODE = 57.0538
ARG_OF_PERICENTER = 98.7648
MEAN_ANOMALY   = 261.3731

EPHEMERIS_TYPE = 0
CLASSIFICATION_TYPE = U
NORAD_CAT_ID   = 39766
ELEMENT_SET_NO = 999
REV_AT_EPOCH   = 62033
BSTAR          = .37086E-3
MEAN_MOTION_DOT = .2719E-4
MEAN_MOTION_DDOT = 0

CCSDS_OMM_VERS = 2.0
CREATION_DATE  = 
ORIGINATOR     = 

OBJECT_NAME    = YAOGAN-29
OBJECT_ID      = 2015-069A
CENTER_NAME    = EARTH
REF_FRAME      = TEME
TIME_SYSTEM    = UTC
MEAN_ELEMENT_THEORY = SGP/SGP4

EPOCH          = 2025-11-17T20:27:51.457824
MEAN_MOTION    = 14.82843836
ECCENTRICITY   = .0001869
INCLINATION    = 98.0245
RA_OF_ASC_NODE = 344.9416
ARG_OF_PERICENTER = 38.6901
MEAN_ANOMALY   = 321.4445

EPHEMERIS_TYPE = 0
CLASSIFICATION_TYPE = U
NORAD_CAT_ID   = 41038
ELEMENT_SET_NO = 999
REV_AT_EPOCH   = 53930
BSTAR          = .1079E-3
MEAN_MOTION_DOT = .819E-5
MEAN_MOTION_DDOT = 0

CCSDS_OMM_VERS = 2.0
CREATION_DATE  = 
ORIGINATOR     = 

OBJECT_NAME    = ASTRO-H (HITOMI)
OBJECT_ID      = 2016-012A
CENTER_NAME    = EARTH
REF_FRAME      = TEME
TIME_SYSTEM    = UTC
MEAN_ELEMENT_THEORY = SGP/SGP4

EPOCH          = 2025-11-17T19:44:57.308064
MEAN_MOTION    = 15.09138755
ECCENTRICITY   = .000986
INCLINATION    = 31.0014
RA_OF_ASC_NODE = 357.9743
ARG_OF_PERICENTER = 286.5211
MEAN_ANOMALY   = 73.4344

EPHEMERIS_TYPE = 0
CLASSIFICATION_TYPE = U
NORAD_CAT_ID   = 41337
ELEMENT_SET_NO = 999
REV_AT_EPOCH   = 53531
BSTAR          = .2725E-3
MEAN_MOTION_DOT = .4529E-4
MEAN_MOTION_DDOT = 0

CCSDS_OMM_VERS = 2.0
CREATION_DATE  = 
ORIGINATOR     = 

OBJECT_NAME    = HXMT (HUIYAN)
OBJECT_ID      = 2017-034A
CENTER_NAME    = EARTH
REF_FRAME      = TEME
TIME_SYSTEM    = UTC
MEAN_ELEMENT_THEORY = SGP/SGP4

EPOCH          = 2025-11-17T21:17:15.216288
MEAN_MOTION    = 15.15897633
ECCENTRICITY   = .0034069
INCLINATION    = 43.0148
RA_OF_ASC_NODE = 277.5068
ARG_OF_PERICENTER = 249.0033
MEAN_ANOMALY   = 110.7168

EPHEMERIS_TYPE = 0
CLASSIFICATION_TYPE = U
NORAD_CAT_ID   = 42758
ELEMENT_SET_NO = 999
REV_AT_EPOCH   = 46556
BSTAR          = .4987E-3
MEAN_MOTION_DOT = .964E-4
MEAN_MOTION_DDOT = 0

CCSDS_OMM_VERS = 2.0
CREATION_DATE  = 
ORIGINATOR     = 

OBJECT_NAME    = CZ-2C R/B
OBJECT_ID      = 2018-054D
CENTER_NAME    = EARTH
REF_FRAME      = TEME
TIME_SYSTEM    = UTC
MEAN_ELEMENT_THEORY = SGP/SGP4

EPOCH          = 2025-11-17T18:20:45.629664
MEAN_MOTION    = 15.68683496
ECCENTRICITY   = .0023339
INCLINATION    = 35.1363
RA_OF_ASC_NODE = 349.5434
ARG_OF_PERICENTER = 257.2024
MEAN_ANOMALY   = 102.6099

EPHEMERIS_TYPE = 0
CLASSIFICATION_TYPE = U
NORAD_CAT_ID   = 43521
ELEMENT_SET_NO = 999
REV_AT_EPOCH   = 41112
BSTAR          = .74442E-3
MEAN_MOTION_DOT = .90159E-3
MEAN_MOTION_DDOT = 0

CCSDS_OMM_VERS = 2.0
CREATION_DATE  = 
ORIGINATOR     = 

OBJECT_NAME    = SAOCOM 1A
OBJECT_ID      = 2018-076A
CENTER_NAME    = EARTH
REF_FRAME      = TEME
TIME_SYSTEM    = UTC
MEAN_ELEMENT_THEORY = SGP/SGP4

EPOCH          = 2025-11-17T19:52:18.324768
MEAN_MOTION    = 14.82174690
ECCENTRICITY   = .0001384
INCLINATION    = 97.8860
RA_OF_ASC_NODE = 146.6118
ARG_OF_PERICENTER = 90.4853
MEAN_ANOMALY   = 269.6519

EPHEMERIS_TYPE = 0
CLASSIFICATION_TYPE = U
NORAD_CAT_ID   = 43641
ELEMENT_SET_NO = 999
REV_AT_EPOCH   = 38479
BSTAR          = .11292E-3
MEAN_MOTION_DOT = .847E-5
MEAN_MOTION_DDOT = 0

CCSDS_OMM_VERS = 2.0
CREATION_DATE  = 
ORIGINATOR     = 

OBJECT_NAME    = H-2A R/B
OBJECT_ID      = 2018-084L
CENTER_NAME    = EARTH
REF_FRAME      = TEME
TIME_SYSTEM    = UTC
MEAN_ELEMENT_THEORY = SGP/SGP4

EPOCH          = 2025-11-17T11:50:54.798720
MEAN_MOTION    = 15.36200213
ECCENTRICITY   = .00290338
INCLINATION    = 98.8790
RA_OF_ASC_NODE = 150.3657
ARG_OF_PERICENTER = 52.1572
MEAN_ANOMALY   = 308.2288

EPHEMERIS_TYPE = 0
CLASSIFICATION_TYPE = U
NORAD_CAT_ID   = 43682
ELEMENT_SET_NO = 999
REV_AT_EPOCH   = 38852
BSTAR          = .71845977E-3
MEAN_MOTION_DOT = .25653E-3
MEAN_MOTION_DDOT = 0

CCSDS_OMM_VERS = 2.0
CREATION_DATE  = 
ORIGINATOR     = 

OBJECT_NAME    = SAOCOM 1B
OBJECT_ID      = 2020-059A
CENTER_NAME    = EARTH
REF_FRAME      = TEME
TIME_SYSTEM    = UTC
MEAN_ELEMENT_THEORY = SGP/SGP4

EPOCH          = 2025-11-17T20:37:20.882208
MEAN_MOTION    = 14.82146374
ECCENTRICITY   = .0001341
INCLINATION    = 97.8850
RA_OF_ASC_NODE = 145.7446
ARG_OF_PERICENTER = 89.9345
MEAN_ANOMALY   = 270.2021

EPHEMERIS_TYPE = 0
CLASSIFICATION_TYPE = U
NORAD_CAT_ID   = 46265
ELEMENT_SET_NO = 999
REV_AT_EPOCH   = 28218
BSTAR          = .4044E-4
MEAN_MOTION_DOT = .27E-5
MEAN_MOTION_DDOT = 0

CCSDS_OMM_VERS = 2.0
CREATION_DATE  = 
ORIGINATOR     = 

OBJECT_NAME    = CSS (TIANHE)
OBJECT_ID      = 2021-035A
CENTER_NAME    = EARTH
REF_FRAME      = TEME
TIME_SYSTEM    = UTC
MEAN_ELEMENT_THEORY = SGP/SGP4

EPOCH          = 2025-11-17T20:32:22.449696
MEAN_MOTION    = 15.59237718
ECCENTRICITY   = .0006941
INCLINATION    = 41.4654
RA_OF_ASC_NODE = 167.6905
ARG_OF_PERICENTER = 184.8185
MEAN_ANOMALY   = 175.2587

EPHEMERIS_TYPE = 0
CLASSIFICATION_TYPE = U
NORAD_CAT_ID   = 48274
ELEMENT_SET_NO = 999
REV_AT_EPOCH   = 26014
BSTAR          = .33215E-3
MEAN_MOTION_DOT = .26616E-3
MEAN_MOTION_DDOT = 0

