H-2A R/B                
1 38341U 12025E   25321.59643824  .00005430  00000+0  50306-3 0  9991
2 38341  98.4549 274.8984 0044670 320.8147  38.9840 14.94203110731477
SHIJIAN-16 (SJ-16)      
1 39358U 13057A   25321.85815778  .00002808  00000+0  27985-3 0  9997
2 39358  74.9750  36.7286 0016642  19.6563 340.5262 14.91879469654828
SL-4 R/B                
1 39679U 14021B   25320.98495245  .00020065  00000+0  48371-3 0  9998
2 39679  51.6057 165.6757 0103692  53.5677 307.4811 15.35774834638931
ALOS-2                  
1 39766U 14029A   25321.85414954  .00002719  00000+0  37086-3 0  9995
2 39766  97.9239  57.0538 0001484  98.7648 261.3731 14.79474894620333
YAOGAN-29               
1 41038U 15069A   25321.85267891  .00000819  00000+0  10790-3 0  9993
2 41038  98.0245 344.9416 0001869  38.6901 321.4445 14.82843836539308
ASTRO-H (HITOMI)        
1 41337U 16012A   25321.82288551  .00004529  00000+0  27250-3 0  9998
2 41337  31.0014 357.9743 0009860 286.5211  73.4344 15.09138755535311
HXMT (HUIYAN)           
1 42758U 17034A   25321.88698167  .00009640  00000+0  49870-3 0  9996
2 42758  43.0148 277.5068 0034069 249.0033 110.7168 15.15897633465564
CZ-2C R/B               
1 43521U 18054D   25321.76441701  .00090159  00000+0  74442-3 0  9993
2 43521  35.1363 349.5434 0023339 257.2024 102.6099 15.68683496411124
SAOCOM 1A               
1 43641U 18076A   25321.82798987  .00000847  00000+0  11292-3 0  9997
2 43641  97.8860 146.6118 0001384  90.4853 269.6519 14.82174690384791
H-2A R/B                
1 43682U 18084L   25321.49368979  .00025653  00000+0  71846-3 0  9991
2 43682  98.8790 150.3657 0029034  52.1572 308.2288 15.36200213388523
SAOCOM 1B               
1 46265U 20059A   25321.85926947  .00000270  00000+0  40440-4 0  9996
2 46265  97.8850 145.7446 0001341  89.9345 270.2021 14.82146374282185
CSS (TIANHE)            
1 48274U 21035A   25321.85581539  .00026616  00000+0  33215-3 0  9990
2 48274  41.4654 167.6905 0006941 184.8185 175.2587 15.59237718260146
